{
  "norad_id": 66438,
  "name": "STARLINK-34681",
  "history": [
    {
      "epoch": "2026-03-28T16:07:47.624736Z",
      "apogee_km": 483.67421638242286,
      "perigee_km": 482.26741483591013,
      "latitude_deg": -1.4458231132239361e-05,
      "longitude_deg": 99.16838106485983,
      "height_km": 482.72822302591743,
      "semi_major_axis_km": 6861.107815609166,
      "eccentricity": 0.00010252,
      "inclination_deg": 43.0028,
      "raan_deg": 167.206,
      "arg_perigee_deg": 271.5713,
      "mean_anomaly_deg": 88.5021,
      "mean_motion_rev_day": 15.27606143
    },
    {
      "epoch": "2026-03-30T04:13:24.690144Z",
      "apogee_km": 483.6392345246177,
      "perigee_km": 482.48792506732843,
      "latitude_deg": 2.42298244767442e-05,
      "longitude_deg": -92.21042898000451,
      "height_km": 482.57042773063216,
      "semi_major_axis_km": 6861.200579795973,
      "eccentricity": 8.39e-05,
      "inclination_deg": 43.0031,
      "raan_deg": 158.7139,
      "arg_perigee_deg": 297.9331,
      "mean_anomaly_deg": 62.1436,
      "mean_motion_rev_day": 15.27575163
    }
  ]
}